HULIANWANG DIGUI-120    
1 67060U 25295B   25349.71694909  .00000000  00000+0  66896-4 0  9998
2 67060  50.0050 359.6709 0013223 257.2650 102.6786 14.25706335   543
HULIANWANG DIGUI-121    
1 67061U 25295C   25349.71692468 -.00000001  00000+0  66638-4 0  9993
2 67061  50.0012 359.6606 0013268 256.3366 103.6071 14.25729079   549
HULIANWANG DIGUI-122    
1 67062U 25295D   25354.20261711  .00000092  00000+0  10552-3 0  9999
2 67062  50.0054 340.7259 0013164 279.5231  80.4195 14.25755607  1180
HULIANWANG DIGUI-123    
1 67063U 25295E   25354.20185456  .00000084  00000+0  10184-3 0  9993
2 67063  50.0061 340.7243 0012479 278.7083  81.2417 14.25888399  1187
HULIANWANG DIGUI-124    
1 67064U 25295F   25354.20150602 -.00000609  00000+0 -18671-3 0  9993
2 67064  50.0035 340.7088 0012093 273.4294  86.5237 14.25949274  1182
HULIANWANG DIGUI-125    
1 67065U 25295G   25354.20147961  .00000075  00000+0  97749-4 0  9997
2 67065  50.0011 340.7071 0012271 279.4128  80.5399 14.25954033  1181
HULIANWANG DIGUI-126    
1 67066U 25295H   25354.20064007  .00000069  00000+0  95170-4 0  9996
2 67066  50.0014 340.7019 0011437 276.4832  83.4780 14.26097009  1187
HULIANWANG DIGUI-127    
1 67067U 25295J   25354.19985208 -.00000788  00000+0 -25972-3 0  9992
2 67067  50.0054 340.7049 0010891 280.2545  79.7141 14.26251180  1183
CZ-12 R/B               
1 67068U 25295K   25353.97685719 -.00000129  00000+0  11975-4 0  9999
2 67068  49.9944 340.8721 0056880 161.8417 198.4551 14.41129023  1155
XIWANG-5 02             
1 67069U 25296A   25354.20836815  .00008157  00000+0  41582-3 0  9997
2 67069  41.3526  58.9709 0014465  78.4582 281.7863 15.16815712  1095
DEAR-5                  
1 67070U 25296B   25354.20758602  .00004371  00000+0  22721-3 0  9994
2 67070  41.3552  58.9670 0016078  79.8478 280.4156 15.16879281  1085
KZ-11 R/B               
1 67071U 25296C   25354.16923020  .06669049  64696-5  53063-3 0  9993
2 67071  41.3244  61.6826 0602930   5.4045 355.2917 15.05528250  1059
